ONEWEB-0328             
1 49197U 21083M   24321.87142940 -.00000068  00000+0 -22161-3 0  9991
2 49197  87.8918  75.0514 0001535 104.2912 255.8388 13.13471078156408
ONEWEB-0331             
1 49198U 21083N   24321.27302313 -.00000815  00000+0 -20994-2 0  9999
2 49198  87.9097  90.4521 0001556 110.5518 249.5782 13.18680002153849
ONEWEB-0333             
1 49199U 21083P   24321.25724804  .00000121  00000+0  29652-3 0  9990
2 49199  87.8927  75.2168 0001628  98.0522 262.0792 13.13471219155042
ONEWEB-0334             
1 49200U 21083Q   24321.69191506 -.00000045  00000+0 -14218-3 0  9997
2 49200  87.9279  29.3576 0002473  79.6132 280.5280 13.20771500161857
ONEWEB-0335             
1 49201U 21083R   24321.25248460  .00000194  00000+0  49752-3 0  9996
2 49201  87.8926  75.2061 0001482 103.4084 256.7210 13.13472862155050
ONEWEB-0336             
1 49202U 21083S   24321.75558081  .00000104  00000+0  24987-3 0  9999
2 49202  87.8925  75.1005 0001820 102.0033 258.1300 13.13471095156416
ONEWEB-0337             
1 49203U 21083T   24321.23172219  .00000359  00000+0  94754-3 0  9999
2 49203  87.8925  75.2035 0001546 106.7881 253.3417 13.13469516155047
ONEWEB-0338             
1 49204U 21083U   24321.69903077  .00000050  00000+0  91713-4 0  9995
2 49204  87.9289  29.3490 0001881  88.9201 271.2148 13.20769252161883
ONEWEB-0339             
1 49205U 21083V   24322.69034567  .00000216  00000+0  55777-3 0  9999
2 49205  87.8924  74.9055 0001542 102.1615 257.9687 13.13471128156511
ONEWEB-0340             
1 49206U 21083W   24321.41055257  .00000133  00000+0  30482-3 0  9992
2 49206  87.9096  90.4207 0001548 103.0207 257.1098 13.18685317155113
ONEWEB-0341             
1 49207U 21083X   24322.63246899  .00000028  00000+0  38152-4 0  9998
2 49207  87.9090  90.1888 0000944 104.9948 255.1289 13.18682557155293
ONEWEB-0342             
1 49208U 21083Y   24322.69017612  .00000095  00000+0  20071-3 0  9998
2 49208  87.9277  29.1493 0001829  96.2416 263.8926 13.20773654161980
ONEWEB-0343             
1 49209U 21083Z   24321.11019965  .00000059  00000+0  11604-3 0  9990
2 49209  87.9086  90.4908 0001047  81.1800 278.9450 13.18682715153853
ONEWEB-0344             
1 49210U 21083AA  24321.74287691 -.00000526  00000+0 -14741-2 0  9999
2 49210  87.8923  75.1148 0001271 113.9424 246.1838 13.13471584156399
ONEWEB-0345             
1 49211U 21083AB  24321.22709418  .00000377  00000+0  99611-3 0  9991
2 49211  87.8923  75.1888 0001228 114.7293 245.3965 13.13472265155035
ONEWEB-0346             
1 49212U 21083AC  24322.63721826  .00000025  00000+0  30744-4 0  9998
2 49212  87.9092  90.1971 0001790 111.0237 249.1087 13.18688079155287
ONEWEB-0348             
1 49213U 21083AD  24322.15042843  .00002057  00000+0  50277-2 0  9999
2 49213  87.9282  29.2433 0001921 120.1657 239.9667 13.20760570161949
ONEWEB-0350             
1 49214U 21083AE  24321.23662269 -.00000483  00000+0 -13579-2 0  9995
2 49214  87.8924  75.1784 0001348 110.5324 249.5950 13.13475178155065
ONEWEB-0351             
1 49215U 21083AF  24321.23488093  .00000073  00000+0  14768-3 0  9992
2 49215  87.9284  29.4174 0001771  71.9664 288.1662 13.20770601160486
ONEWEB-0352             
1 49216U 21083AG  24321.75081645 -.00000028  00000+0 -11233-3 0  9998
2 49216  87.8922  75.1108 0001373  86.9337 273.1949 13.13470984156526
ONEWEB-0354             
1 49217U 21083AH  24322.69965870  .00000129  00000+0  28652-3 0  9997
2 49217  87.9285  29.1170 0001576 108.0401 252.0904 13.20772829162021
ONEWEB-0355             
1 49218U 21083AJ  24321.78096509  .00000313  00000+0  82171-3 0  9992
2 49218  87.8923  75.1039 0001426  99.1496 260.9795 13.13473233156403
ONEWEB-0357             
1 49219U 21083AK  24322.69648127  .00000064  00000+0  12603-3 0  9999
2 49219  87.9282  29.1309 0001644  95.3634 264.7687 13.20773372162017
ONEWEB-0332             
1 49279U 21090A   24322.62641470  .00000122  00000+0  29345-3 0  9996
2 49279  87.9034  44.3731 0001973  92.5857 267.5498 13.14506229151834
ONEWEB-0347             
1 49280U 21090B   24321.70218097  .00000035  00000+0  54513-4 0  9990
2 49280  87.9286  29.3311 0002252  94.0949 266.0442 13.20768147154812
ONEWEB-0349             
1 49281U 21090C   24321.27920911  .00000035  00000+0  53181-4 0  9998
2 49281  87.9291  29.4172 0001993 100.8369 259.2989 13.20771986153542
ONEWEB-0353             
1 49282U 21090D   24322.69460843  .00000165  00000+0  40973-3 0  9997
2 49282  87.9032  44.3450 0001958  95.0252 265.1101 13.14500489153136
ONEWEB-0356             
1 49283U 21090E   24322.18671243  .00000052  00000+0  95097-4 0  9993
2 49283  87.9290  29.2305 0002678 115.5156 244.6255 13.20770373154956
ONEWEB-0358             
1 49284U 21090F   24321.76215792  .00000029  00000+0  39492-4 0  9991
2 49284  87.9287  29.3024 0001905 109.3688 250.7651 13.20769963155621
ONEWEB-0359             
1 49285U 21090G   24321.22870436  .00000189  00000+0  43283-3 0  9994
2 49285  87.9286  29.4242 0001468 109.7021 250.4271 13.20771137154241
ONEWEB-0360             
1 49286U 21090H   24322.65860583  .00000038  00000+0  60871-4 0  9991
2 49286  87.9288  29.1457 0001670 103.7785 256.3534 13.20773296155038
ONEWEB-0361             
1 49287U 21090J   24321.20029746  .00000035  00000+0  53187-4 0  9999
2 49287  87.9289  29.4300 0001992 102.7529 257.3827 13.20771420154001
ONEWEB-0362             
1 49288U 21090K   24321.22581716  .00000140  00000+0  31765-3 0  9996
2 49288  87.9189  59.9167 0001475  95.7900 264.3401 13.19727262150689
ONEWEB-0363             
1 49289U 21090L   24321.74636677 -.00000279  00000+0 -71745-3 0  9998
2 49289  87.9287  29.3168 0002163 111.0447 249.0918 13.20770420154913
ONEWEB-0364             
1 49290U 21090M   24321.25394016  .00000081  00000+0  16667-3 0  9995
2 49290  87.9290  29.4416 0001933 102.6336 257.5013 13.20774291155150
ONEWEB-0365             
1 49291U 21090N   24321.23528725  .00000106  00000+0  23149-3 0  9991
2 49291  87.9178  59.8848 0001738  97.4104 262.7226 13.19726765150193
ONEWEB-0366             
1 49292U 21090P   24322.69144271  .00000200  00000+0  50383-3 0  9998
2 49292  87.9030  44.3561 0001850 102.1358 257.9979 13.14502923153122
ONEWEB-0367             
1 49293U 21090Q   24321.74479764  .00000043  00000+0  74275-4 0  9994
2 49293  87.9288  29.3120 0001892  97.6095 262.5254 13.20772921154903
ONEWEB-0368             
1 49294U 21090R   24322.62704620  .00000038  00000+0  62236-4 0  9993
2 49294  87.9286  29.1683 0002693  95.7714 264.3727 13.20768513156179
ONEWEB-0369             
1 49295U 21090S   24321.76126827  .00000038  00000+0  62163-4 0  9994
2 49295  87.9192  59.7940 0001787  98.3161 261.8174 13.19724481151547
ONEWEB-0370             
1 49296U 21090T   24322.66333877 -.00000121  00000+0 -32835-3 0  9997
2 49296  87.9284  29.1342 0001446 102.5207 257.6088 13.20769038155065
ONEWEB-0371             
1 49297U 21090U   24321.23845104  .00000109  00000+0  23953-3 0  9996
2 49297  87.9188  59.8876 0001646  98.8584 261.2736 13.19726083150223
ONEWEB-0372             
1 49298U 21090V   24321.74308549  .00000063  00000+0  12342-3 0  9999
2 49298  87.9288  29.3258 0001911  96.8431 263.2920 13.20769701154918
ONEWEB-0373             
1 49299U 21090W   24322.67913100  .00000036  00000+0  57477-4 0  9997
2 49299  87.9284  29.1538 0002091 106.0579 254.0785 13.20772496156229
ONEWEB-0374             
1 49300U 21090X   24321.76532510 -.00000135  00000+0 -39980-3 0  9991
2 49300  87.9027  44.5234 0001932 103.8244 256.3101 13.14496499152994
ONEWEB-0375             
1 49301U 21090Y   24322.66650589  .00000046  00000+0  80604-4 0  9998
2 49301  87.9286  29.1331 0002251 117.1636 242.9727 13.20772834155712
ONEWEB-0376             
1 49302U 21090Z   24321.76758017 -.00000155  00000+0 -42003-3 0  9997
2 49302  87.9179  59.7806 0001803  92.3329 267.8010 13.19723331151572
ONEWEB-0377             
1 49303U 21090AA  24322.65243880 -.00000005  00000+0 -44316-4 0  9998
2 49303  87.9286  29.1284 0001666 107.1633 252.9683 13.20769983155696
ONEWEB-0378             
1 49304U 21090AB  24321.23515490  .00000082  00000+0  16950-3 0  9996
2 49304  87.9290  29.4144 0001969 103.9965 256.1387 13.20771034153491
ONEWEB-0379             
1 49305U 21090AC  24321.76059082  .00000262  00000+0  67274-3 0  9990
2 49305  87.9030  44.5279 0001809 101.5823 258.5510 13.14502618153005
ONEWEB-0380             
1 49306U 21090AD  24321.30952524  .00000077  00000+0  16103-3 0  9993
2 49306  87.9188  59.8861 0001710 105.3702 254.7620 13.19729000151486
ONEWEB-0381             
1 49307U 21090AE  24321.20976230  .00000113  00000+0  24700-3 0  9996
2 49307  87.9290  29.4222 0001725 106.5444 253.5879 13.20774984153531
ONEWEB-0382             
1 49308U 21090AF  24321.42440185  .00000045  00000+0  78964-4 0  9992
2 49308  87.9288  29.3755 0002224 107.8719 252.2657 13.20768812154863
ONEWEB-0383             
1 49309U 21090AG  24321.75422509  .00000152  00000+0  37684-3 0  9991
2 49309  87.9027  44.5141 0002058 103.1091 257.0269 13.14504557153026
ONEWEB-0384             
1 49310U 21090AH  24321.72427966 -.00000030  00000+0 -10498-3 0  9993
2 49310  87.9287  29.3295 0002320 108.5488 251.5898 13.20771910154910
ONEWEB-0385             
1 49311U 21090AJ  24321.71953398  .00000014  00000+0  19931-5 0  9999
2 49311  87.9289  29.3314 0001982 103.8913 256.2441 13.20769950154893
ONEWEB-0386             
1 49312U 21090AK  24321.20660788  .00000052  00000+0  95095-4 0  9998
2 49312  87.9286  29.4179 0002141 105.8786 254.2583 13.20770313153528
ONEWEB-0387             
1 49313U 21090AL  24322.17565890  .00000039  00000+0  62951-4 0  9994
2 49313  87.9288  29.2979 0001853 111.7532 248.3799 13.20772825154963
ONEWEB-0388             
1 49314U 21090AM  24321.22897813  .00000156  00000+0  35848-3 0  9997
2 49314  87.9189  59.9062 0001840 103.4257 256.7081 13.19726342150183
